start=new Date('2021-08-29T00:00:00.000Z').valueOf();
sats=[{"RA_OF_ASC_NODE":"81.0780","COUNTRY_CODE":"US","SEMIMAJOR_AXIS":"6925.344","OBJECT_NAME":"STARLINK-1484","REV_AT_EPOCH":"6719","CENTER_NAME":"EARTH","GP_ID":"183635676","CLASSIFICATION_TYPE":"U","OBJECT_TYPE":"PAYLOAD","SITE":"AFETR","TLE_LINE1":"1 45756U 20038AC  21240.83227383  .00000257  00000-0  36172-4 0  9992","PERIAPSIS":"545.910","INCLINATION":"53.0547","OBJECT_ID":"2020-038AC","MEAN_ELEMENT_THEORY":"SGP4","REF_FRAME":"TEME","MEAN_ANOMALY":"267.4626","TLE_LINE2":"2 45756  53.0547  81.0780 0001876  92.6578 267.4626 15.06401394 67195","RCS_SIZE":"LARGE","PERIOD":"95.592","FILE":"3104555","ELEMENT_SET_NO":"999","MEAN_MOTION_DOT":"0.00000257","BSTAR":"0.00003617200000","ECCENTRICITY":"0.00018760","MEAN_MOTION_DDOT":"0.0000000000000","EPOCH":"2021-08-28T19:58:28.458912","MEAN_MOTION":"15.06401394","DECAY_DATE":null,"APOAPSIS":"548.508","EPHEMERIS_TYPE":"0","TIME_SYSTEM":"UTC","LAUNCH_DATE":"2020-06-13","ARG_OF_PERICENTER":"92.6578","NORAD_CAT_ID":"45756"},{"INCLINATION":"53.0543","TLE_LINE1":"1 45757U 20038AD  21240.85071037 -.00000524  00000-0 -16250-4 0  9992","SITE":"AFETR","PERIAPSIS":"545.581","OBJECT_TYPE":"PAYLOAD","REF_FRAME":"TEME","MEAN_ELEMENT_THEORY":"SGP4","OBJECT_ID":"2020-038AD","SEMIMAJOR_AXIS":"6925.354","COUNTRY_CODE":"US","RA_OF_ASC_NODE":"81.0004","GP_ID":"183636426","CLASSIFICATION_TYPE":"U","CENTER_NAME":"EARTH","REV_AT_EPOCH":"6719","OBJECT_NAME":"STARLINK-1486","DECAY_DATE":null,"APOAPSIS":"548.858","EPHEMERIS_TYPE":"0","TIME_SYSTEM":"UTC","EPOCH":"2021-08-28T20:25:01.375968","MEAN_MOTION":"15.06398161","MEAN_MOTION_DDOT":"0.0000000000000","ECCENTRICITY":"0.00023660","BSTAR":"-0.00001625000000","NORAD_CAT_ID":"45757","ARG_OF_PERICENTER":"64.0706","LAUNCH_DATE":"2020-06-13","TLE_LINE2":"2 45757  53.0543  81.0004 0002366  64.0706 296.0526 15.06398161 67196","MEAN_ANOMALY":"296.0526","MEAN_MOTION_DOT":"-0.00000524","ELEMENT_SET_NO":"999","FILE":"3104555","PERIOD":"95.592","RCS_SIZE":"LARGE"},{"COUNTRY_CODE":"US","SEMIMAJOR_AXIS":"6925.338","RA_OF_ASC_NODE":"81.0300","GP_ID":"183637174","CLASSIFICATION_TYPE":"U","REV_AT_EPOCH":"6719","OBJECT_NAME":"STARLINK-1487","CENTER_NAME":"EARTH","INCLINATION":"53.0558","PERIAPSIS":"545.663","SITE":"AFETR","TLE_LINE1":"1 45758U 20038AE  21240.84333309  .00000896  00000-0  79025-4 0  9994","OBJECT_TYPE":"PAYLOAD","REF_FRAME":"TEME","MEAN_ELEMENT_THEORY":"SGP4","OBJECT_ID":"2020-038AE","TLE_LINE2":"2 45758  53.0558  81.0300 0002224  82.8693 277.2549 15.06403370 67193","MEAN_ANOMALY":"277.2549","MEAN_MOTION_DOT":"0.00000896","ELEMENT_SET_NO":"999","FILE":"3104555","PERIOD":"95.592","RCS_SIZE":"LARGE","APOAPSIS":"548.743","TIME_SYSTEM":"UTC","EPHEMERIS_TYPE":"0","DECAY_DATE":null,"MEAN_MOTION":"15.06403370","EPOCH":"2021-08-28T20:14:23.978976","ECCENTRICITY":"0.00022240","MEAN_MOTION_DDOT":"0.0000000000000","BSTAR":"0.00007902500000","NORAD_CAT_ID":"45758","ARG_OF_PERICENTER":"82.8693","LAUNCH_DATE":"2020-06-13"},{"INCLINATION":"53.0556","TLE_LINE1":"1 45759U 20038AF  21240.89125307  .00001650  00000-0  12967-3 0  9997","SITE":"AFETR","PERIAPSIS":"545.810","OBJECT_TYPE":"PAYLOAD","REF_FRAME":"TEME","MEAN_ELEMENT_THEORY":"SGP4","OBJECT_ID":"2020-038AF","SEMIMAJOR_AXIS":"6925.343","COUNTRY_CODE":"US","RA_OF_ASC_NODE":"80.8230","GP_ID":"183636924","CLASSIFICATION_TYPE":"U","CENTER_NAME":"EARTH","REV_AT_EPOCH":"6720","OBJECT_NAME":"STARLINK-1493","DECAY_DATE":null,"TIME_SYSTEM":"UTC","APOAPSIS":"548.605","EPHEMERIS_TYPE":"0","EPOCH":"2021-08-28T21:23:24.265248","MEAN_MOTION":"15.06401910","MEAN_MOTION_DDOT":"0.0000000000000","ECCENTRICITY":"0.00020180","BSTAR":"0.00012967000000","NORAD_CAT_ID":"45759","ARG_OF_PERICENTER":"91.5505","LAUNCH_DATE":"2020-06-13","TLE_LINE2":"2 45759  53.0556  80.8230 0002018  91.5505 268.5716 15.06401910 67200","MEAN_ANOMALY":"268.5716","MEAN_MOTION_DOT":"0.00001650","ELEMENT_SET_NO":"999","FILE":"3104555","PERIOD":"95.592","RCS_SIZE":"LARGE"},{"LAUNCH_DATE":"2020-06-13","ARG_OF_PERICENTER":"86.3045","NORAD_CAT_ID":"45760","BSTAR":"0.00012981000000","MEAN_MOTION_DDOT":"0.0000000000000","ECCENTRICITY":"0.00021960","EPOCH":"2021-08-28T19:53:10.705632","MEAN_MOTION":"15.06401894","DECAY_DATE":null,"APOAPSIS":"548.729","EPHEMERIS_TYPE":"0","TIME_SYSTEM":"UTC","PERIOD":"95.592","RCS_SIZE":"LARGE","FILE":"3104555","ELEMENT_SET_NO":"999","MEAN_MOTION_DOT":"0.00001652","MEAN_ANOMALY":"273.8195","TLE_LINE2":"2 45760  53.0570  81.1005 0002196  86.3045 273.8195 15.06401894 67201","OBJECT_ID":"2020-038AG","MEAN_ELEMENT_THEORY":"SGP4","REF_FRAME":"TEME","OBJECT_TYPE":"PAYLOAD","SITE":"AFETR","TLE_LINE1":"1 45760U 20038AG  21240.82859613  .00001652  00000-0  12981-3 0  9994","PERIAPSIS":"545.687","INCLINATION":"53.0570","OBJECT_NAME":"STARLINK-1494","REV_AT_EPOCH":"6720","CENTER_NAME":"EARTH","GP_ID":"183636176","CLASSIFICATION_TYPE":"U","RA_OF_ASC_NODE":"81.1005","SEMIMAJOR_AXIS":"6925.343","COUNTRY_CODE":"US"},{"ELEMENT_SET_NO":"999","MEAN_MOTION_DOT":"0.00034744","PERIOD":"93.372","RCS_SIZE":"LARGE","FILE":"3104555","TLE_LINE2":"2 45761  53.0573  77.4167 0001277  66.5276 293.5863 15.42217909 67266","MEAN_ANOMALY":"293.5863","NORAD_CAT_ID":"45761","LAUNCH_DATE":"2020-06-13","ARG_OF_PERICENTER":"66.5276","EPOCH":"2021-08-28T20:21:56.759040","MEAN_MOTION":"15.42217909","DECAY_DATE":null,"TIME_SYSTEM":"UTC","APOAPSIS":"440.438","EPHEMERIS_TYPE":"0","BSTAR":"0.00080262000000","MEAN_MOTION_DDOT":"0.0000000000000","ECCENTRICITY":"0.00012770","GP_ID":"183635927","CLASSIFICATION_TYPE":"U","REV_AT_EPOCH":"6726","CENTER_NAME":"EARTH","OBJECT_NAME":"STARLINK-1495","SEMIMAJOR_AXIS":"6817.702","COUNTRY_CODE":"US","RA_OF_ASC_NODE":"77.4167","REF_FRAME":"TEME","OBJECT_ID":"2020-038AH","MEAN_ELEMENT_THEORY":"SGP4","SITE":"AFETR","TLE_LINE1":"1 45761U 20038AH  21240.84857360  .00034744  00000-0  80262-3 0  9999","PERIAPSIS":"438.696","INCLINATION":"53.0573","OBJECT_TYPE":"PAYLOAD"},{"TLE_LINE2":"2 45762  53.0544  80.9354 0002170  86.5022 273.6215 15.06403354 67212","MEAN_ANOMALY":"273.6215","ELEMENT_SET_NO":"999","MEAN_MOTION_DOT":"0.00000203","RCS_SIZE":"LARGE","PERIOD":"95.592","FILE":"3104555","EPOCH":"2021-08-28T20:46:15.312000","MEAN_MOTION":"15.06403354","DECAY_DATE":null,"TIME_SYSTEM":"UTC","APOAPSIS":"548.706","EPHEMERIS_TYPE":"0","BSTAR":"0.00003257200000","ECCENTRICITY":"0.00021700","MEAN_MOTION_DDOT":"0.0000000000000","NORAD_CAT_ID":"45762","LAUNCH_DATE":"2020-06-13","ARG_OF_PERICENTER":"86.5022","SEMIMAJOR_AXIS":"6925.338","COUNTRY_CODE":"US","RA_OF_ASC_NODE":"80.9354","GP_ID":"183636675","CLASSIFICATION_TYPE":"U","REV_AT_EPOCH":"6721","CENTER_NAME":"EARTH","OBJECT_NAME":"STARLINK-1499","SITE":"AFETR","TLE_LINE1":"1 45762U 20038AJ  21240.86545500  .00000203  00000-0  32572-4 0  9997","PERIAPSIS":"545.700","INCLINATION":"53.0544","OBJECT_TYPE":"PAYLOAD","REF_FRAME":"TEME","OBJECT_ID":"2020-038AJ","MEAN_ELEMENT_THEORY":"SGP4"},{"MEAN_MOTION_DDOT":"0.0000000000000","ECCENTRICITY":"0.00020880","BSTAR":"0.00034688000000","DECAY_DATE":null,"APOAPSIS":"370.869","TIME_SYSTEM":"UTC","EPHEMERIS_TYPE":"0","EPOCH":"2021-08-28T18:54:39.989376","MEAN_MOTION":"15.66315362","ARG_OF_PERICENTER":"28.6742","LAUNCH_DATE":"2020-06-13","NORAD_CAT_ID":"45763","MEAN_ANOMALY":"331.4387","TLE_LINE2":"2 45763  53.0574  53.9185 0002088  28.6742 331.4387 15.66315362 67773","FILE":"3104555","RCS_SIZE":"LARGE","PERIOD":"91.936","MEAN_MOTION_DOT":"0.00036183","ELEMENT_SET_NO":"999","OBJECT_TYPE":"PAYLOAD","INCLINATION":"53.0574","SITE":"AFETR","TLE_LINE1":"1 45763U 20038AK  21240.78796284  .00036183  00000-0  34688-3 0  9991","PERIAPSIS":"368.052","MEAN_ELEMENT_THEORY":"SGP4","OBJECT_ID":"2020-038AK","REF_FRAME":"TEME","RA_OF_ASC_NODE":"53.9185","SEMIMAJOR_AXIS":"6747.595","COUNTRY_CODE":"US","CENTER_NAME":"EARTH","REV_AT_EPOCH":"6777","OBJECT_NAME":"STARLINK-1501","CLASSIFICATION_TYPE":"U","GP_ID":"183637424"},{"CENTER_NAME":"EARTH","REV_AT_EPOCH":"6721","OBJECT_NAME":"STARLINK-1502","CLASSIFICATION_TYPE":"U","GP_ID":"183635677","RA_OF_ASC_NODE":"80.9611","COUNTRY_CODE":"US","SEMIMAJOR_AXIS":"6925.320","MEAN_ELEMENT_THEORY":"SGP4","OBJECT_ID":"2020-038AL","REF_FRAME":"TEME","OBJECT_TYPE":"PAYLOAD","INCLINATION":"53.0538","PERIAPSIS":"545.752","SITE":"AFETR","TLE_LINE1":"1 45764U 20038AL  21240.85807917  .00002368  00000-0  17779-3 0  9996","FILE":"3104555","RCS_SIZE":"LARGE","PERIOD":"95.592","MEAN_MOTION_DOT":"0.00002368","ELEMENT_SET_NO":"999","MEAN_ANOMALY":"268.0536","TLE_LINE2":"2 45764  53.0538  80.9611 0002070  92.0690 268.0536 15.06409173 67214","ARG_OF_PERICENTER":"92.0690","LAUNCH_DATE":"2020-06-13","NORAD_CAT_ID":"45764","MEAN_MOTION_DDOT":"0.0000000000000","ECCENTRICITY":"0.00020700","BSTAR":"0.00017779000000","TIME_SYSTEM":"UTC","APOAPSIS":"548.619","EPHEMERIS_TYPE":"0","DECAY_DATE":null,"MEAN_MOTION":"15.06409173","EPOCH":"2021-08-28T20:35:38.040288"},{"MEAN_ANOMALY":"248.3820","TLE_LINE2":"2 45765  53.0541  74.5132 0001280 111.7322 248.3820 15.44000223 67301","FILE":"3104555","PERIOD":"93.264","RCS_SIZE":"LARGE","MEAN_MOTION_DOT":"0.00292981","ELEMENT_SET_NO":"999","ECCENTRICITY":"0.00012800","MEAN_MOTION_DDOT":"0.0000000000000","BSTAR":"0.00609900000000","DECAY_DATE":null,"APOAPSIS":"435.191","TIME_SYSTEM":"UTC","EPHEMERIS_TYPE":"0","EPOCH":"2021-08-28T20:16:56.619264","MEAN_MOTION":"15.44000223","ARG_OF_PERICENTER":"111.7322","LAUNCH_DATE":"2020-06-13","NORAD_CAT_ID":"45765","RA_OF_ASC_NODE":"74.5132","SEMIMAJOR_AXIS":"6812.454","COUNTRY_CODE":"US","CENTER_NAME":"EARTH","REV_AT_EPOCH":"6730","OBJECT_NAME":"STARLINK-1508","GP_ID":"183636427","CLASSIFICATION_TYPE":"U","OBJECT_TYPE":"PAYLOAD","INCLINATION":"53.0541","SITE":"AFETR","TLE_LINE1":"1 45765U 20038AM  21240.84509976  .00292981  00000-0  60990-2 0  9994","PERIAPSIS":"433.447","MEAN_ELEMENT_THEORY":"SGP4","OBJECT_ID":"2020-038AM","REF_FRAME":"TEME"}];
